ORBCOMM FM103           
1 40091U 14040F   24200.56636634  .00002019  00000+0  48405-3 0  9995
2 40091  47.0051 151.8610 0001728 210.7823 149.2961 14.56772099515436
ORBCOMM FM114           
1 41179U 15081A   24200.32248929  .00002553  00000+0  60095-3 0  9991
2 41179  47.0029  62.2402 0001873 251.0892 108.9790 14.56863633455764
ORBCOMM FM119           
1 41180U 15081B   24200.57082046  .00001901  00000+0  45815-3 0  9995
2 41180  47.0025 330.2904 0001922 293.1555  66.9127 14.56757520457053
ORBCOMM FM105           
1 41181U 15081C   24200.64751794  .00000915  00000+0  30775-3 0  9990
2 41181  47.0026 303.1939 0002659 263.7041  96.3536 14.44483793452627
ORBCOMM FM110           
1 41182U 15081D   24200.84902871  .00002658  00000+0  62468-3 0  9997
2 41182  47.0019  59.1679 0001325  79.4622 280.6412 14.56832577455899
ORBCOMM FM118           
1 41183U 15081E   24200.34666883  .00002244  00000+0  53306-3 0  9995
2 41183  47.0040  61.8599 0001547  69.2264 290.8787 14.56834625455748
ORBCOMM FM112           
1 41184U 15081F   24200.61624254  .00002886  00000+0  67613-3 0  9990
2 41184  46.9999 329.2781 0002376 276.2625  83.7990 14.56752572457002
ORBCOMM FM113           
1 41185U 15081G   24200.79928330  .00002857  00000+0  66962-3 0  9996
2 41185  47.0016 328.6942 0001931 284.4023  75.6648 14.56752354457082
